{
  "type": "FeatureCollection",
  "features": [
    {
      "type": "Feature",
      "properties": {
        "norad_id": 2807,
        "name": "OPS 7218 (TRANSIT 16)",
        "group": "nnss",
        "lat": 57.33642672105205,
        "lon": -5.596775356685452,
        "alt_km": 1052.863466068763,
        "timestamp": "2025-12-16T10:53:45.737838+00:00",
        "meta_object_name": "OPS 7218 (TRANSIT 16)",
        "meta_object_id": "1967-048A",
        "meta_epoch": "2025-12-15T22:29:28.427712",
        "meta_mean_motion": 13.50722841,
        "meta_eccentricity": 0.00220672,
        "meta_inclination": 89.6732,
        "meta_ra_of_asc_node": 353.9102,
        "meta_arg_of_pericenter": 105.5511,
        "meta_mean_anomaly": 320.2043,
        "meta_ephemeris_type": 0,
        "meta_classification_type": "U",
        "meta_norad_cat_id": 2807,
        "meta_element_set_no": 999,
        "meta_rev_at_epoch": 88319,
        "meta_bstar": 0.00016676761,
        "meta_mean_motion_dot": 1.18e-06,
        "meta_mean_motion_ddot": 0,
        "tle_line1": "1 02807U 67048A   25349.93713458  .00000118  00000+0  16677-3 0  9994",
        "tle_line2": "2 02807  89.6732 353.9102 0022067 105.5511 320.2043 13.50722841883198"
      },
      "geometry": {
        "type": "Point",
        "coordinates": [
          -5.596775356685452,
          57.33642672105205
        ]
      }
    },
    {
      "type": "Feature",
      "properties": {
        "norad_id": 2965,
        "name": "OPS 4947 (TRANSIT 17)",
        "group": "nnss",
        "lat": 21.832209384420317,
        "lon": -156.1484796723272,
        "alt_km": 1044.8304865002838,
        "timestamp": "2025-12-16T10:53:45.737860+00:00",
        "meta_object_name": "OPS 4947 (TRANSIT 17)",
        "meta_object_id": "1967-092A",
        "meta_epoch": "2025-12-15T20:46:40.471680",
        "meta_mean_motion": 13.53454241,
        "meta_eccentricity": 0.00463789,
        "meta_inclination": 89.2494,
        "meta_ra_of_asc_node": 24.1972,
        "meta_arg_of_pericenter": 225.1377,
        "meta_mean_anomaly": 308.88,
        "meta_ephemeris_type": 0,
        "meta_classification_type": "U",
        "meta_norad_cat_id": 2965,
        "meta_element_set_no": 999,
        "meta_rev_at_epoch": 87139,
        "meta_bstar": 0.00020698748,
        "meta_mean_motion_dot": 1.51e-06,
        "meta_mean_motion_ddot": 0,
        "tle_line1": "1 02965U 67092A   25349.86574620  .00000151  00000+0  20699-3 0  9992",
        "tle_line2": "2 02965  89.2494  24.1972 0046378 225.1377 308.8800 13.53454241871397"
      },
      "geometry": {
        "type": "Point",
        "coordinates": [
          -156.1484796723272,
          21.832209384420317
        ]
      }
    },
    {
      "type": "Feature",
      "properties": {
        "norad_id": 3133,
        "name": "OPS 7034 (TRANSIT 18)",
        "group": "nnss",
        "lat": -76.81343457082208,
        "lon": -86.23068181931349,
        "alt_km": 1105.2027058176,
        "timestamp": "2025-12-16T10:53:45.737873+00:00",
        "meta_object_name": "OPS 7034 (TRANSIT 18)",
        "meta_object_id": "1968-012A",
        "meta_epoch": "2025-12-15T19:33:33.578208",
        "meta_mean_motion": 13.51566376,
        "meta_eccentricity": 0.00741554,
        "meta_inclination": 90.0281,
        "meta_ra_of_asc_node": 273.6475,
        "meta_arg_of_pericenter": 160.2382,
        "meta_mean_anomaly": 254.8421,
        "meta_ephemeris_type": 0,
        "meta_classification_type": "U",
        "meta_norad_cat_id": 3133,
        "meta_element_set_no": 999,
        "meta_rev_at_epoch": 56960,
        "meta_bstar": 0.00014296418,
        "meta_mean_motion_dot": 1.05e-06,
        "meta_mean_motion_ddot": 0,
        "tle_line1": "1 03133U 68012A   25349.81497197  .00000105  00000+0  14296-3 0  9996",
        "tle_line2": "2 03133  90.0281 273.6475 0074155 160.2382 254.8421 13.51566376569605"
      },
      "geometry": {
        "type": "Point",
        "coordinates": [
          -86.23068181931349,
          -76.81343457082208
        ]
      }
    },
    {
      "type": "Feature",
      "properties": {
        "norad_id": 4507,
        "name": "NNSS 19 (TRANSIT 19)",
        "group": "nnss",
        "lat": -69.62254840127274,
        "lon": 54.521924507154324,
        "alt_km": 967.7071713540217,
        "timestamp": "2025-12-16T10:53:45.737885+00:00",
        "meta_object_name": "NNSS 19 (TRANSIT 19)",
        "meta_object_id": "1970-067A",
        "meta_epoch": "2025-12-15T22:59:14.781408",
        "meta_mean_motion": 13.51315748,
        "meta_eccentricity": 0.01703749,
        "meta_inclination": 90.0054,
        "meta_ra_of_asc_node": 234.5362,
        "meta_arg_of_pericenter": 283.9719,
        "meta_mean_anomaly": 74.2539,
        "meta_ephemeris_type": 0,
        "meta_classification_type": "U",
        "meta_norad_cat_id": 4507,
        "meta_element_set_no": 999,
        "meta_rev_at_epoch": 72265,
        "meta_bstar": 0.00013394691,
        "meta_mean_motion_dot": 1.03e-06,
        "meta_mean_motion_ddot": 0,
        "tle_line1": "1 04507U 70067A   25349.95780997  .00000103  00000+0  13395-3 0  9990",
        "tle_line2": "2 04507  90.0054 234.5362 0170374 283.9719  74.2539 13.51315748722652"
      },
      "geometry": {
        "type": "Point",
        "coordinates": [
          54.521924507154324,
          -69.62254840127274
        ]
      }
    },
    {
      "type": "Feature",
      "properties": {
        "norad_id": 6909,
        "name": "NNSS 20 (TRANSIT 20)",
        "group": "nnss",
        "lat": -52.47918358650431,
        "lon": 75.18588997380208,
        "alt_km": 1112.9294452580853,
        "timestamp": "2025-12-16T10:53:45.737896+00:00",
        "meta_object_name": "NNSS 20 (TRANSIT 20)",
        "meta_object_id": "1973-081A",
        "meta_epoch": "2025-12-15T23:16:12.796320",
        "meta_mean_motion": 13.71435769,
        "meta_eccentricity": 0.01565853,
        "meta_inclination": 89.8562,
        "meta_ra_of_asc_node": 255.0058,
        "meta_arg_of_pericenter": 68.7567,
        "meta_mean_anomaly": 293.0239,
        "meta_ephemeris_type": 0,
        "meta_classification_type": "U",
        "meta_norad_cat_id": 6909,
        "meta_element_set_no": 999,
        "meta_rev_at_epoch": 80405,
        "meta_bstar": 0.00023931126,
        "meta_mean_motion_dot": 2.46e-06,
        "meta_mean_motion_ddot": 0,
        "tle_line1": "1 06909U 73081A   25349.96959255  .00000246  00000+0  23931-3 0  9998",
        "tle_line2": "2 06909  89.8562 255.0058 0156585  68.7567 293.0239 13.71435769804059"
      },
      "geometry": {
        "type": "Point",
        "coordinates": [
          75.18588997380208,
          -52.47918358650431
        ]
      }
    },
    {
      "type": "Feature",
      "properties": {
        "norad_id": 10457,
        "name": "TRANSAT",
        "group": "nnss",
        "lat": -44.25157691806854,
        "lon": -101.1913920122375,
        "alt_km": 1069.4010989029057,
        "timestamp": "2025-12-16T10:53:45.737907+00:00",
        "meta_object_name": "TRANSAT",
        "meta_object_id": "1977-106A",
        "meta_epoch": "2025-12-15T23:57:52.018272",
        "meta_mean_motion": 13.48944072,
        "meta_eccentricity": 0.00257079,
        "meta_inclination": 89.6481,
        "meta_ra_of_asc_node": 78.4817,
        "meta_arg_of_pericenter": 180.0773,
        "meta_mean_anomaly": 353.2763,
        "meta_ephemeris_type": 0,
        "meta_classification_type": "U",
        "meta_norad_cat_id": 10457,
        "meta_element_set_no": 999,
        "meta_rev_at_epoch": 36787,
        "meta_bstar": 9.7036594e-05,
        "meta_mean_motion_dot": 7.1e-07,
        "meta_mean_motion_ddot": 0,
        "tle_line1": "1 10457U 77106A   25349.99851873  .00000071  00000+0  97037-4 0  9998",
        "tle_line2": "2 10457  89.6481  78.4817 0025707 180.0773 353.2763 13.48944072367879"
      },
      "geometry": {
        "type": "Point",
        "coordinates": [
          -101.1913920122375,
          -44.25157691806854
        ]
      }
    },
    {
      "type": "Feature",
      "properties": {
        "norad_id": 12458,
        "name": "NOVA 1",
        "group": "nnss",
        "lat": 37.00075920204319,
        "lon": -88.77858852116422,
        "alt_km": 1161.551312013772,
        "timestamp": "2025-12-16T10:53:45.737918+00:00",
        "meta_object_name": "NOVA 1",
        "meta_object_id": "1981-044A",
        "meta_epoch": "2025-12-15T20:15:43.389216",
        "meta_mean_motion": 13.23278829,
        "meta_eccentricity": 0.00159318,
        "meta_inclination": 89.8526,
        "meta_ra_of_asc_node": 91.3412,
        "meta_arg_of_pericenter": 96.3869,
        "meta_mean_anomaly": 23.3464,
        "meta_ephemeris_type": 0,
        "meta_classification_type": "U",
        "meta_norad_cat_id": 12458,
        "meta_element_set_no": 999,
        "meta_rev_at_epoch": 15227,
        "meta_bstar": 5.3525058e-05,
        "meta_mean_motion_dot": 3.2e-07,
        "meta_mean_motion_ddot": 0,
        "tle_line1": "1 12458U 81044A   25349.84425219  .00000032  00000+0  53525-4 0  9993",
        "tle_line2": "2 12458  89.8526  91.3412 0015931  96.3869  23.3464 13.23278829152274"
      },
      "geometry": {
        "type": "Point",
        "coordinates": [
          -88.77858852116422,
          37.00075920204319
        ]
      }
    }
  ]
}